{
  "links" : {
    "next" : "https://api.nasa.gov/neo/rest/v1/feed?start_date=2004-01-16&end_date=2004-01-16&detailed=true&api_key=t0TVs3DtDT2H8Oy2Zy8m2eVrNsAVKAexjcZXUckd",
    "prev" : "https://api.nasa.gov/neo/rest/v1/feed?start_date=2004-01-14&end_date=2004-01-14&detailed=true&api_key=t0TVs3DtDT2H8Oy2Zy8m2eVrNsAVKAexjcZXUckd",
    "self" : "https://api.nasa.gov/neo/rest/v1/feed?start_date=2004-01-15&end_date=2004-01-15&detailed=true&api_key=t0TVs3DtDT2H8Oy2Zy8m2eVrNsAVKAexjcZXUckd"
  },
  "element_count" : 5,
  "near_earth_objects" : {
    "2004-01-15" : [ {
      "links" : {
        "self" : "https://api.nasa.gov/neo/rest/v1/neo/3174196?api_key=t0TVs3DtDT2H8Oy2Zy8m2eVrNsAVKAexjcZXUckd"
      },
      "neo_reference_id" : "3174196",
      "name" : "(2004 BZ74)",
      "nasa_jpl_url" : "http://ssd.jpl.nasa.gov/sbdb.cgi?sstr=3174196",
      "absolute_magnitude_h" : 18.1,
      "estimated_diameter" : {
        "kilometers" : {
          "estimated_diameter_min" : 0.6376097899,
          "estimated_diameter_max" : 1.4257388333
        },
        "meters" : {
          "estimated_diameter_min" : 637.6097898754,
          "estimated_diameter_max" : 1425.7388332807
        },
        "miles" : {
          "estimated_diameter_min" : 0.3961922327,
          "estimated_diameter_max" : 0.8859127646
        },
        "feet" : {
          "estimated_diameter_min" : 2091.8957030147,
          "estimated_diameter_max" : 4677.6209937807
        }
      },
      "is_potentially_hazardous_asteroid" : false,
      "close_approach_data" : [ {
        "close_approach_date" : "2004-01-15",
        "epoch_date_close_approach" : 1074153600000,
        "relative_velocity" : {
          "kilometers_per_second" : "37.1742967031",
          "kilometers_per_hour" : "133827.4681312295",
          "miles_per_hour" : "83155.1842952076"
        },
        "miss_distance" : {
          "astronomical" : "0.28096945",
          "lunar" : "109.2971115112",
          "kilometers" : "42032432",
          "miles" : "26117742"
        },
        "orbiting_body" : "Earth"
      } ],
      "orbital_data" : {
        "orbit_id" : "31",
        "orbit_determination_date" : "2017-04-06 09:13:14",
        "orbit_uncertainty" : "0",
        "minimum_orbit_intersection" : ".0513192",
        "jupiter_tisserand_invariant" : "2.371",
        "epoch_osculation" : "2458000.5",
        "eccentricity" : ".8895695715915666",
        "semi_major_axis" : "3.057433599853265",
        "inclination" : "17.02682963153786",
        "ascending_node_longitude" : "230.3164822360793",
        "orbital_period" : "1952.693037862774",
        "perihelion_distance" : ".3376337022621349",
        "perihelion_argument" : "124.687924248348",
        "aphelion_distance" : "5.777233497444396",
        "perihelion_time" : "2458821.802227513198",
        "mean_anomaly" : "208.5840855824623",
        "mean_motion" : ".184360774079484",
        "equinox" : "J2000"
      }
    }, {
      "links" : {
        "self" : "https://api.nasa.gov/neo/rest/v1/neo/3595775?api_key=t0TVs3DtDT2H8Oy2Zy8m2eVrNsAVKAexjcZXUckd"
      },
      "neo_reference_id" : "3595775",
      "name" : "(2012 AB11)",
      "nasa_jpl_url" : "http://ssd.jpl.nasa.gov/sbdb.cgi?sstr=3595775",
      "absolute_magnitude_h" : 22.2,
      "estimated_diameter" : {
        "kilometers" : {
          "estimated_diameter_min" : 0.096506147,
          "estimated_diameter_max" : 0.2157943048
        },
        "meters" : {
          "estimated_diameter_min" : 96.5061469579,
          "estimated_diameter_max" : 215.7943048444
        },
        "miles" : {
          "estimated_diameter_min" : 0.059966121,
          "estimated_diameter_max" : 0.134088323
        },
        "feet" : {
          "estimated_diameter_min" : 316.6212271853,
          "estimated_diameter_max" : 707.9865871058
        }
      },
      "is_potentially_hazardous_asteroid" : false,
      "close_approach_data" : [ {
        "close_approach_date" : "2004-01-15",
        "epoch_date_close_approach" : 1074153600000,
        "relative_velocity" : {
          "kilometers_per_second" : "15.311522409",
          "kilometers_per_hour" : "55121.4806723928",
          "miles_per_hour" : "34250.3444766876"
        },
        "miss_distance" : {
          "astronomical" : "0.162160373",
          "lunar" : "63.0803833008",
          "kilometers" : "24258846",
          "miles" : "15073748"
        },
        "orbiting_body" : "Earth"
      } ],
      "orbital_data" : {
        "orbit_id" : "18",
        "orbit_determination_date" : "2017-04-06 08:51:29",
        "orbit_uncertainty" : "0",
        "minimum_orbit_intersection" : ".0982548",
        "jupiter_tisserand_invariant" : "4.207",
        "epoch_osculation" : "2458000.5",
        "eccentricity" : ".3275692129064315",
        "semi_major_axis" : "1.584080744907911",
        "inclination" : "27.75719490155942",
        "ascending_node_longitude" : "108.8347685734694",
        "orbital_period" : "728.2230132457518",
        "perihelion_distance" : "1.065184662118193",
        "perihelion_argument" : "20.47430307174291",
        "aphelion_distance" : "2.10297682769763",
        "perihelion_time" : "2458140.465878140433",
        "mean_anomaly" : "290.8073004916809",
        "mean_motion" : ".4943540556284392",
        "equinox" : "J2000"
      }
    } ]
  }
}